[{"OBJECT_NAME":"STARLINK-5454","OBJECT_ID":"2022-175S","EPOCH":"2026-01-27T21:10:25.895424","MEAN_MOTION":15.0883891,"ECCENTRICITY":0.00014786,"INCLINATION":53.214,"RA_OF_ASC_NODE":211.995,"ARG_OF_PERICENTER":96.159,"MEAN_ANOMALY":263.957,"EPHEMERIS_TYPE":0,"CLASSIFICATION_TYPE":"U","NORAD_CAT_ID":54774,"ELEMENT_SET_NO":999,"REV_AT_EPOCH":17397,"BSTAR":8.2754675e-5,"MEAN_MOTION_DOT":1.029e-5,"MEAN_MOTION_DDOT":0},{"OBJECT_NAME":"STARLINK-5465","OBJECT_ID":"2022-175T","EPOCH":"2026-01-27T21:37:37.031520","MEAN_MOTION":15.08841293,"ECCENTRICITY":0.00012142,"INCLINATION":53.216,"RA_OF_ASC_NODE":227.0644,"ARG_OF_PERICENTER":87.663,"MEAN_ANOMALY":272.4501,"EPHEMERIS_TYPE":0,"CLASSIFICATION_TYPE":"U","NORAD_CAT_ID":54775,"ELEMENT_SET_NO":999,"REV_AT_EPOCH":17376,"BSTAR":5.450608e-5,"MEAN_MOTION_DOT":5.8e-6,"MEAN_MOTION_DDOT":0},{"OBJECT_NAME":"STARLINK-5470","OBJECT_ID":"2022-175U","EPOCH":"2026-01-27T13:08:50.828064","MEAN_MOTION":15.08838973,"ECCENTRICITY":0.0001451,"INCLINATION":53.2161,"RA_OF_ASC_NODE":228.4192,"ARG_OF_PERICENTER":90.7183,"MEAN_ANOMALY":269.3975,"EPHEMERIS_TYPE":0,"CLASSIFICATION_TYPE":"U","NORAD_CAT_ID":54776,"ELEMENT_SET_NO":999,"REV_AT_EPOCH":17371,"BSTAR":-3.1043e-5,"MEAN_MOTION_DOT":-7.82e-6,"MEAN_MOTION_DDOT":0},{"OBJECT_NAME":"STARLINK-5468","OBJECT_ID":"2022-175V","EPOCH":"2026-01-27T21:32:18.617280","MEAN_MOTION":15.08839577,"ECCENTRICITY":0.00013572,"INCLINATION":53.2145,"RA_OF_ASC_NODE":227.0424,"ARG_OF_PERICENTER":85.5116,"MEAN_ANOMALY":274.6031,"EPHEMERIS_TYPE":0,"CLASSIFICATION_TYPE":"U","NORAD_CAT_ID":54777,"ELEMENT_SET_NO":999,"REV_AT_EPOCH":17376,"BSTAR":0.00017436207,"MEAN_MOTION_DOT":2.488e-5,"MEAN_MOTION_DDOT":0},{"OBJECT_NAME":"STARLINK-5450","OBJECT_ID":"2022-175W","EPOCH":"2026-01-27T20:28:06.418848","MEAN_MOTION":15.0883875,"ECCENTRICITY":0.00012217,"INCLINATION":53.2148,"RA_OF_ASC_NODE":212.5076,"ARG_OF_PERICENTER":90.3733,"MEAN_ANOMALY":269.74,"EPHEMERIS_TYPE":0,"CLASSIFICATION_TYPE":"U","NORAD_CAT_ID":54778,"ELEMENT_SET_NO":999,"REV_AT_EPOCH":17396,"BSTAR":-3.9456422e-5,"MEAN_MOTION_DOT":-9.16e-6,"MEAN_MOTION_DDOT":0},{"OBJECT_NAME":"STARLINK-5447","OBJECT_ID":"2022-175X","EPOCH":"2026-01-27T22:08:47.496480","MEAN_MOTION":15.08843354,"ECCENTRICITY":0.00014679,"INCLINATION":53.2149,"RA_OF_ASC_NODE":212.2319,"ARG_OF_PERICENTER":88.8155,"MEAN_ANOMALY":271.3005,"EPHEMERIS_TYPE":0,"CLASSIFICATION_TYPE":"U","NORAD_CAT_ID":54779,"ELEMENT_SET_NO":999,"REV_AT_EPOCH":17397,"BSTAR":9.2348743e-5,"MEAN_MOTION_DOT":1.182e-5,"MEAN_MOTION_DDOT":0},{"OBJECT_NAME":"STARLINK-5449","OBJECT_ID":"2022-175Y","EPOCH":"2026-01-27T21:42:16.113024","MEAN_MOTION":15.08845925,"ECCENTRICITY":0.00012022,"INCLINATION":53.2122,"RA_OF_ASC_NODE":212.1144,"ARG_OF_PERICENTER":80.8687,"MEAN_ANOMALY":279.2442,"EPHEMERIS_TYPE":0,"CLASSIFICATION_TYPE":"U","NORAD_CAT_ID":54780,"ELEMENT_SET_NO":999,"REV_AT_EPOCH":17397,"BSTAR":4.1341939e-5,"MEAN_MOTION_DOT":3.7e-6,"MEAN_MOTION_DDOT":0},{"OBJECT_NAME":"STARLINK-5443","OBJECT_ID":"2022-175Z","EPOCH":"2026-01-27T20:22:47.957952","MEAN_MOTION":15.08843959,"ECCENTRICITY":0.00014901,"INCLINATION":53.214,"RA_OF_ASC_NODE":212.4771,"ARG_OF_PERICENTER":94.5333,"MEAN_ANOMALY":265.5829,"EPHEMERIS_TYPE":0,"CLASSIFICATION_TYPE":"U","NORAD_CAT_ID":54781,"ELEMENT_SET_NO":999,"REV_AT_EPOCH":17396,"BSTAR":-2.792632e-6,"MEAN_MOTION_DOT":-3.32e-6,"MEAN_MOTION_DDOT":0},{"OBJECT_NAME":"STARLINK-5439","OBJECT_ID":"2022-175AB","EPOCH":"2026-01-27T12:20:33.804096","MEAN_MOTION":15.0884924,"ECCENTRICITY":0.0001654,"INCLINATION":53.2147,"RA_OF_ASC_NODE":213.9486,"ARG_OF_PERICENTER":89.0786,"MEAN_ANOMALY":271.0396,"EPHEMERIS_TYPE":0,"CLASSIFICATION_TYPE":"U","NORAD_CAT_ID":54783,"ELEMENT_SET_NO":999,"REV_AT_EPOCH":17391,"BSTAR":-6.7401e-7,"MEAN_MOTION_DOT":-2.99e-6,"MEAN_MOTION_DDOT":0},{"OBJECT_NAME":"STARLINK-5442","OBJECT_ID":"2022-175AC","EPOCH":"2026-01-27T23:02:23.354592","MEAN_MOTION":15.08840675,"ECCENTRICITY":0.00012306,"INCLINATION":53.2149,"RA_OF_ASC_NODE":226.7236,"ARG_OF_PERICENTER":87.2661,"MEAN_ANOMALY":272.8472,"EPHEMERIS_TYPE":0,"CLASSIFICATION_TYPE":"U","NORAD_CAT_ID":54784,"ELEMENT_SET_NO":999,"REV_AT_EPOCH":17377,"BSTAR":6.9170346e-5,"MEAN_MOTION_DOT":8.13e-6,"MEAN_MOTION_DDOT":0},{"OBJECT_NAME":"STARLINK-5440","OBJECT_ID":"2022-175AD","EPOCH":"2026-01-26T20:00:11.684448","MEAN_MOTION":15.08839025,"ECCENTRICITY":0.00019594,"INCLINATION":53.2135,"RA_OF_ASC_NODE":176.8907,"ARG_OF_PERICENTER":78.8061,"MEAN_ANOMALY":281.3151,"EPHEMERIS_TYPE":0,"CLASSIFICATION_TYPE":"U","NORAD_CAT_ID":54785,"ELEMENT_SET_NO":999,"REV_AT_EPOCH":17437,"BSTAR":3.6448636e-5,"MEAN_MOTION_DOT":2.92e-6,"MEAN_MOTION_DDOT":0},{"OBJECT_NAME":"STARLINK-5441","OBJECT_ID":"2022-175AF","EPOCH":"2026-01-27T21:21:41.834592","MEAN_MOTION":15.08841683,"ECCENTRICITY":0.00011564,"INCLINATION":53.2155,"RA_OF_ASC_NODE":226.9959,"ARG_OF_PERICENTER":97.2662,"MEAN_ANOMALY":262.8461,"EPHEMERIS_TYPE":0,"CLASSIFICATION_TYPE":"U","NORAD_CAT_ID":54787,"ELEMENT_SET_NO":999,"REV_AT_EPOCH":17376,"BSTAR":1.3193146e-5,"MEAN_MOTION_DOT":-7.8e-7,"MEAN_MOTION_DDOT":0},{"OBJECT_NAME":"STARLINK-5399","OBJECT_ID":"2022-175AG","EPOCH":"2026-01-27T20:01:34.271616","MEAN_MOTION":15.08846572,"ECCENTRICITY":0.00015312,"INCLINATION":53.2138,"RA_OF_ASC_NODE":212.3977,"ARG_OF_PERICENTER":85.2598,"MEAN_ANOMALY":274.8569,"EPHEMERIS_TYPE":0,"CLASSIFICATION_TYPE":"U","NORAD_CAT_ID":54788,"ELEMENT_SET_NO":999,"REV_AT_EPOCH":17396,"BSTAR":6.4119105e-5,"MEAN_MOTION_DOT":7.33e-6,"MEAN_MOTION_DDOT":0},{"OBJECT_NAME":"STARLINK-5446","OBJECT_ID":"2022-175AH","EPOCH":"2026-01-27T18:25:30.535392","MEAN_MOTION":15.08842449,"ECCENTRICITY":0.00011166,"INCLINATION":53.215,"RA_OF_ASC_NODE":197.5941,"ARG_OF_PERICENTER":78.1218,"MEAN_ANOMALY":281.99,"EPHEMERIS_TYPE":0,"CLASSIFICATION_TYPE":"U","NORAD_CAT_ID":54789,"ELEMENT_SET_NO":999,"REV_AT_EPOCH":17416,"BSTAR":3.620555e-6,"MEAN_MOTION_DOT":-2.3e-6,"MEAN_MOTION_DDOT":0},{"OBJECT_NAME":"STARLINK-5445","OBJECT_ID":"2022-175AJ","EPOCH":"2026-01-27T23:01:44.279328","MEAN_MOTION":15.08837399,"ECCENTRICITY":0.0001325,"INCLINATION":53.2161,"RA_OF_ASC_NODE":211.7579,"ARG_OF_PERICENTER":88.2188,"MEAN_ANOMALY":271.8956,"EPHEMERIS_TYPE":0,"CLASSIFICATION_TYPE":"U","NORAD_CAT_ID":54790,"ELEMENT_SET_NO":999,"REV_AT_EPOCH":17398,"BSTAR":5.9765262e-5,"MEAN_MOTION_DOT":6.63e-6,"MEAN_MOTION_DDOT":0},{"OBJECT_NAME":"STARLINK-5425","OBJECT_ID":"2022-175AK","EPOCH":"2026-01-27T05:53:42.849312","MEAN_MOTION":15.08854529,"ECCENTRICITY":0.0001147,"INCLINATION":53.2125,"RA_OF_ASC_NODE":215.1162,"ARG_OF_PERICENTER":91.9234,"MEAN_ANOMALY":268.189,"EPHEMERIS_TYPE":0,"CLASSIFICATION_TYPE":"U","NORAD_CAT_ID":54791,"ELEMENT_SET_NO":999,"REV_AT_EPOCH":17387,"BSTAR":0.0001125,"MEAN_MOTION_DOT":1.504e-5,"MEAN_MOTION_DDOT":0}]
