STARLINK-5454           
1 54774U 22175S   26027.88224416  .00001029  00000+0  82755-4 0  9998
2 54774  53.2140 211.9950 0001478  96.1590 263.9570 15.08838910173973
STARLINK-5465           
1 54775U 22175T   26027.90112305  .00000580  00000+0  54506-4 0  9999
2 54775  53.2160 227.0644 0001214  87.6630 272.4501 15.08841293173766
STARLINK-5470           
1 54776U 22175U   26027.54781051 -.00000782  00000+0 -31043-4 0  9997
2 54776  53.2161 228.4192 0001451  90.7183 269.3975 15.08838973173718
STARLINK-5468           
1 54777U 22175V   26027.89743770  .00002488  00000+0  17436-3 0  9994
2 54777  53.2145 227.0424 0001357  85.5116 274.6031 15.08839577173765
STARLINK-5450           
1 54778U 22175W   26027.85285207 -.00000916  00000+0 -39456-4 0  9990
2 54778  53.2148 212.5076 0001221  90.3733 269.7400 15.08838750173969
STARLINK-5447           
1 54779U 22175X   26027.92277195  .00001182  00000+0  92349-4 0  9990
2 54779  53.2149 212.2319 0001467  88.8155 271.3005 15.08843354173977
STARLINK-5449           
1 54780U 22175Y   26027.90435316  .00000370  00000+0  41342-4 0  9996
2 54780  53.2122 212.1144 0001202  80.8687 279.2442 15.08845925173972
STARLINK-5443           
1 54781U 22175Z   26027.84916618 -.00000332  00000+0 -27926-5 0  9992
2 54781  53.2140 212.4771 0001490  94.5333 265.5829 15.08843959173962
STARLINK-5439           
1 54783U 22175AB  26027.51428014 -.00000299  00000+0 -67401-6 0  9991
2 54783  53.2147 213.9486 0001654  89.0786 271.0396 15.08849240173918
STARLINK-5442           
1 54784U 22175AC  26027.95999253  .00000813  00000+0  69170-4 0  9991
2 54784  53.2149 226.7236 0001230  87.2661 272.8472 15.08840675173779
STARLINK-5440           
1 54785U 22175AD  26026.83346857  .00000292  00000+0  36449-4 0  9998
2 54785  53.2135 176.8907 0001959  78.8061 281.3151 15.08839025174376
STARLINK-5441           
1 54787U 22175AF  26027.89006753 -.00000078  00000+0  13193-4 0  9999
2 54787  53.2155 226.9959 0001156  97.2662 262.8461 15.08841683173768
STARLINK-5399           
1 54788U 22175AG  26027.83442444  .00000733  00000+0  64119-4 0  9996
2 54788  53.2138 212.3977 0001531  85.2598 274.8569 15.08846572173967
STARLINK-5446           
1 54789U 22175AH  26027.76771453 -.00000230  00000+0  36206-5 0  9994
2 54789  53.2150 197.5941 0001116  78.1218 281.9900 15.08842449174166
STARLINK-5445           
1 54790U 22175AJ  26027.95954027  .00000663  00000+0  59765-4 0  9990
2 54790  53.2161 211.7579 0001325  88.2188 271.8956 15.08837399173982
STARLINK-5425           
1 54791U 22175AK  26027.24563483  .00001504  00000+0  11250-3 0  9996
2 54791  53.2125 215.1162 0001147  91.9234 268.1890 15.08854529173872
